[{"OBJECT_NAME":"STARLINK-30594","OBJECT_ID":"2023-161A","EPOCH":"2025-10-14T06:20:26.133504","MEAN_MOTION":15.30188932,"ECCENTRICITY":0.0001202,"INCLINATION":53.1591,"RA_OF_ASC_NODE":125.6363,"ARG_OF_PERICENTER":98.1441,"MEAN_ANOMALY":261.9696,"EPHEMERIS_TYPE":0,"CLASSIFICATION_TYPE":"U","NORAD_CAT_ID":58097,"ELEMENT_SET_NO":999,"REV_AT_EPOCH":11200,"BSTAR":-1.02576e-5,"MEAN_MOTION_DOT":-6.63e-6,"MEAN_MOTION_DDOT":0},{"OBJECT_NAME":"STARLINK-30614","OBJECT_ID":"2023-161B","EPOCH":"2025-10-14T01:33:42.403968","MEAN_MOTION":15.3019562,"ECCENTRICITY":0.00010719,"INCLINATION":53.1586,"RA_OF_ASC_NODE":126.5257,"ARG_OF_PERICENTER":93.1101,"MEAN_ANOMALY":267.0023,"EPHEMERIS_TYPE":0,"CLASSIFICATION_TYPE":"U","NORAD_CAT_ID":58098,"ELEMENT_SET_NO":999,"REV_AT_EPOCH":11197,"BSTAR":-0.00011979301,"MEAN_MOTION_DOT":-3.905e-5,"MEAN_MOTION_DDOT":0},{"OBJECT_NAME":"STARLINK-30607","OBJECT_ID":"2023-161C","EPOCH":"2025-10-14T06:20:33.225216","MEAN_MOTION":15.30184336,"ECCENTRICITY":0.00012522,"INCLINATION":53.1601,"RA_OF_ASC_NODE":115.6364,"ARG_OF_PERICENTER":83.1796,"MEAN_ANOMALY":276.9347,"EPHEMERIS_TYPE":0,"CLASSIFICATION_TYPE":"U","NORAD_CAT_ID":58099,"ELEMENT_SET_NO":999,"REV_AT_EPOCH":11213,"BSTAR":-1.9299605e-5,"MEAN_MOTION_DOT":-9.3e-6,"MEAN_MOTION_DDOT":0},{"OBJECT_NAME":"STARLINK-30600","OBJECT_ID":"2023-161D","EPOCH":"2025-10-14T01:47:23.362080","MEAN_MOTION":15.3019284,"ECCENTRICITY":9.187e-5,"INCLINATION":53.159,"RA_OF_ASC_NODE":126.5747,"ARG_OF_PERICENTER":83.7303,"MEAN_ANOMALY":276.3802,"EPHEMERIS_TYPE":0,"CLASSIFICATION_TYPE":"U","NORAD_CAT_ID":58100,"ELEMENT_SET_NO":999,"REV_AT_EPOCH":11197,"BSTAR":-3.4130177e-5,"MEAN_MOTION_DOT":-1.369e-5,"MEAN_MOTION_DDOT":0},{"OBJECT_NAME":"STARLINK-30605","OBJECT_ID":"2023-161E","EPOCH":"2025-10-14T06:09:47.545056","MEAN_MOTION":15.30190591,"ECCENTRICITY":7.486e-5,"INCLINATION":53.1584,"RA_OF_ASC_NODE":125.5898,"ARG_OF_PERICENTER":93.1771,"MEAN_ANOMALY":266.9315,"EPHEMERIS_TYPE":0,"CLASSIFICATION_TYPE":"U","NORAD_CAT_ID":58101,"ELEMENT_SET_NO":999,"REV_AT_EPOCH":11200,"BSTAR":8.776365e-6,"MEAN_MOTION_DOT":-9.9e-7,"MEAN_MOTION_DDOT":0},{"OBJECT_NAME":"STARLINK-30592","OBJECT_ID":"2023-161F","EPOCH":"2025-10-14T01:23:04.120512","MEAN_MOTION":15.30196937,"ECCENTRICITY":0.00011799,"INCLINATION":53.158,"RA_OF_ASC_NODE":126.479,"ARG_OF_PERICENTER":84.63,"MEAN_ANOMALY":275.4835,"EPHEMERIS_TYPE":0,"CLASSIFICATION_TYPE":"U","NORAD_CAT_ID":58102,"ELEMENT_SET_NO":999,"REV_AT_EPOCH":11197,"BSTAR":0.00010161386,"MEAN_MOTION_DOT":2.651e-5,"MEAN_MOTION_DDOT":0},{"OBJECT_NAME":"STARLINK-30589","OBJECT_ID":"2023-161G","EPOCH":"2025-10-14T00:46:43.163328","MEAN_MOTION":15.30198409,"ECCENTRICITY":0.00011427,"INCLINATION":53.1599,"RA_OF_ASC_NODE":126.8312,"ARG_OF_PERICENTER":84.8686,"MEAN_ANOMALY":275.2445,"EPHEMERIS_TYPE":0,"CLASSIFICATION_TYPE":"U","NORAD_CAT_ID":58103,"ELEMENT_SET_NO":999,"REV_AT_EPOCH":11196,"BSTAR":-5.626545e-6,"MEAN_MOTION_DOT":-5.26e-6,"MEAN_MOTION_DDOT":0},{"OBJECT_NAME":"STARLINK-30617","OBJECT_ID":"2023-161H","EPOCH":"2025-10-14T00:51:16.409376","MEAN_MOTION":15.30204685,"ECCENTRICITY":2.174e-5,"INCLINATION":53.1598,"RA_OF_ASC_NODE":126.8536,"ARG_OF_PERICENTER":85.357,"MEAN_ANOMALY":274.7456,"EPHEMERIS_TYPE":0,"CLASSIFICATION_TYPE":"U","NORAD_CAT_ID":58104,"ELEMENT_SET_NO":999,"REV_AT_EPOCH":11196,"BSTAR":-2.530243e-5,"MEAN_MOTION_DOT":-1.108e-5,"MEAN_MOTION_DDOT":0},{"OBJECT_NAME":"STARLINK-30616","OBJECT_ID":"2023-161J","EPOCH":"2025-10-14T06:04:24.437568","MEAN_MOTION":15.30183823,"ECCENTRICITY":0.00010692,"INCLINATION":53.1602,"RA_OF_ASC_NODE":112.612,"ARG_OF_PERICENTER":90.8004,"MEAN_ANOMALY":269.3119,"EPHEMERIS_TYPE":0,"CLASSIFICATION_TYPE":"U","NORAD_CAT_ID":58105,"ELEMENT_SET_NO":999,"REV_AT_EPOCH":11217,"BSTAR":-3.738754e-6,"MEAN_MOTION_DOT":-4.7e-6,"MEAN_MOTION_DDOT":0},{"OBJECT_NAME":"STARLINK-30612","OBJECT_ID":"2023-161K","EPOCH":"2025-10-13T23:58:49.341216","MEAN_MOTION":15.30193668,"ECCENTRICITY":9.277e-5,"INCLINATION":53.16,"RA_OF_ASC_NODE":113.8852,"ARG_OF_PERICENTER":82.3281,"MEAN_ANOMALY":277.7825,"EPHEMERIS_TYPE":0,"CLASSIFICATION_TYPE":"U","NORAD_CAT_ID":58106,"ELEMENT_SET_NO":999,"REV_AT_EPOCH":11214,"BSTAR":5.8770002e-5,"MEAN_MOTION_DOT":1.382e-5,"MEAN_MOTION_DDOT":0},{"OBJECT_NAME":"STARLINK-30421","OBJECT_ID":"2023-161L","EPOCH":"2025-10-14T00:06:25.128000","MEAN_MOTION":15.30185632,"ECCENTRICITY":0.00011079,"INCLINATION":53.1597,"RA_OF_ASC_NODE":113.8846,"ARG_OF_PERICENTER":84.9034,"MEAN_ANOMALY":275.2093,"EPHEMERIS_TYPE":0,"CLASSIFICATION_TYPE":"U","NORAD_CAT_ID":58107,"ELEMENT_SET_NO":999,"REV_AT_EPOCH":11214,"BSTAR":5.959013e-5,"MEAN_MOTION_DOT":1.405e-5,"MEAN_MOTION_DDOT":0},{"OBJECT_NAME":"STARLINK-30611","OBJECT_ID":"2023-161M","EPOCH":"2025-10-14T05:18:57.517056","MEAN_MOTION":15.3020457,"ECCENTRICITY":8.676e-5,"INCLINATION":53.16,"RA_OF_ASC_NODE":113.0854,"ARG_OF_PERICENTER":111.5477,"MEAN_ANOMALY":248.5616,"EPHEMERIS_TYPE":0,"CLASSIFICATION_TYPE":"U","NORAD_CAT_ID":58108,"ELEMENT_SET_NO":999,"REV_AT_EPOCH":11217,"BSTAR":0.00011452669,"MEAN_MOTION_DOT":3.035e-5,"MEAN_MOTION_DDOT":0},{"OBJECT_NAME":"STARLINK-30606","OBJECT_ID":"2023-161N","EPOCH":"2025-10-14T06:24:59.359680","MEAN_MOTION":15.30186792,"ECCENTRICITY":0.00011986,"INCLINATION":53.159,"RA_OF_ASC_NODE":125.652,"ARG_OF_PERICENTER":94.2857,"MEAN_ANOMALY":265.828,"EPHEMERIS_TYPE":0,"CLASSIFICATION_TYPE":"U","NORAD_CAT_ID":58109,"ELEMENT_SET_NO":999,"REV_AT_EPOCH":11200,"BSTAR":5.6233052e-5,"MEAN_MOTION_DOT":1.306e-5,"MEAN_MOTION_DDOT":0},{"OBJECT_NAME":"STARLINK-30596","OBJECT_ID":"2023-161P","EPOCH":"2025-10-13T23:35:20.051808","MEAN_MOTION":15.30182995,"ECCENTRICITY":0.00012398,"INCLINATION":53.1571,"RA_OF_ASC_NODE":126.7228,"ARG_OF_PERICENTER":84.8674,"MEAN_ANOMALY":275.2468,"EPHEMERIS_TYPE":0,"CLASSIFICATION_TYPE":"U","NORAD_CAT_ID":58110,"ELEMENT_SET_NO":999,"REV_AT_EPOCH":11196,"BSTAR":-0.00019386842,"MEAN_MOTION_DOT":-6.093e-5,"MEAN_MOTION_DDOT":0},{"OBJECT_NAME":"STARLINK-30595","OBJECT_ID":"2023-161Q","EPOCH":"2025-10-14T06:43:13.677888","MEAN_MOTION":15.30189613,"ECCENTRICITY":0.00011182,"INCLINATION":53.1591,"RA_OF_ASC_NODE":125.7328,"ARG_OF_PERICENTER":86.9312,"MEAN_ANOMALY":273.1816,"EPHEMERIS_TYPE":0,"CLASSIFICATION_TYPE":"U","NORAD_CAT_ID":58111,"ELEMENT_SET_NO":999,"REV_AT_EPOCH":11200,"BSTAR":-3.486647e-5,"MEAN_MOTION_DOT":-1.391e-5,"MEAN_MOTION_DDOT":0},{"OBJECT_NAME":"STARLINK-30593","OBJECT_ID":"2023-161R","EPOCH":"2025-10-14T06:38:39.903072","MEAN_MOTION":15.30193308,"ECCENTRICITY":0.00010278,"INCLINATION":53.159,"RA_OF_ASC_NODE":125.7088,"ARG_OF_PERICENTER":88.0322,"MEAN_ANOMALY":272.0796,"EPHEMERIS_TYPE":0,"CLASSIFICATION_TYPE":"U","NORAD_CAT_ID":58112,"ELEMENT_SET_NO":999,"REV_AT_EPOCH":11200,"BSTAR":-4.5261038e-5,"MEAN_MOTION_DOT":-1.699e-5,"MEAN_MOTION_DDOT":0}]
