STARLINK-30594          
1 58097U 23161A   25287.26419136 -.00000663  00000+0 -10258-4 0  9994
2 58097  53.1591 125.6363 0001202  98.1441 261.9696 15.30188932112006
STARLINK-30614          
1 58098U 23161B   25287.06507412 -.00003905  00000+0 -11979-3 0  9990
2 58098  53.1586 126.5257 0001071  93.1101 267.0023 15.30195620111973
STARLINK-30607          
1 58099U 23161C   25287.26427344 -.00000930  00000+0 -19300-4 0  9990
2 58099  53.1601 115.6364 0001252  83.1796 276.9347 15.30184336112139
STARLINK-30600          
1 58100U 23161D   25287.07457595 -.00001369  00000+0 -34130-4 0  9998
2 58100  53.1590 126.5747 0000918  83.7303 276.3802 15.30192840111973
STARLINK-30605          
1 58101U 23161E   25287.25680029 -.00000099  00000+0  87764-5 0  9999
2 58101  53.1584 125.5898 0000748  93.1771 266.9315 15.30190591112008
STARLINK-30592          
1 58102U 23161F   25287.05768658  .00002651  00000+0  10161-3 0  9993
2 58102  53.1580 126.4790 0001179  84.6300 275.4835 15.30196937111975
STARLINK-30589          
1 58103U 23161G   25287.03244402 -.00000526  00000+0 -56265-5 0  9996
2 58103  53.1599 126.8312 0001142  84.8686 275.2445 15.30198409111969
STARLINK-30617          
1 58104U 23161H   25287.03560659 -.00001108  00000+0 -25302-4 0  9996
2 58104  53.1598 126.8536 0000217  85.3570 274.7456 15.30204685111967
STARLINK-30616          
1 58105U 23161J   25287.25306062 -.00000470  00000+0 -37388-5 0  9996
2 58105  53.1602 112.6120 0001069  90.8004 269.3119 15.30183823112175
STARLINK-30612          
1 58106U 23161K   25286.99918219  .00001382  00000+0  58770-4 0  9998
2 58106  53.1600 113.8852 0000927  82.3281 277.7825 15.30193668112146
STARLINK-30421          
1 58107U 23161L   25287.00445750  .00001405  00000+0  59590-4 0  9994
2 58107  53.1597 113.8846 0001107  84.9034 275.2093 15.30185632112142
STARLINK-30611          
1 58108U 23161M   25287.22149904  .00003035  00000+0  11453-3 0  9997
2 58108  53.1600 113.0854 0000867 111.5477 248.5616 15.30204570112179
STARLINK-30606          
1 58109U 23161N   25287.26735370  .00001306  00000+0  56233-4 0  9995
2 58109  53.1590 125.6520 0001198  94.2857 265.8280 15.30186792112000
STARLINK-30596          
1 58110U 23161P   25286.98287097 -.00006093  00000+0 -19387-3 0  9991
2 58110  53.1571 126.7228 0001239  84.8674 275.2468 15.30182995111964
STARLINK-30595          
1 58111U 23161Q   25287.28001942 -.00001391  00000+0 -34866-4 0  9995
2 58111  53.1591 125.7328 0001118  86.9312 273.1816 15.30189613112009
STARLINK-30593          
1 58112U 23161R   25287.27685073 -.00001699  00000+0 -45261-4 0  9990
2 58112  53.1590 125.7088 0001027  88.0322 272.0796 15.30193308112006
